
# Worst residual: 18.20 km
# MJD 56883.000000 (2014 Aug 14  0:00)
2010-050B = RV223A9 = Chang'e 2 booster
1 37175U 10050B   14226.49922241  .00000000  00000-0  00000-0 2  4646
2 37175 043.5355 252.6123 2738210 314.3938 303.7766 00.02930055    01

# Worst residual: 15.00 km
# MJD 56884.000000 (2014 Aug 15  0:00)
2010-050B = RV223A9 = Chang'e 2 booster
1 37175U 10050B   14227.49922241  .00000000  00000-0  00000-0 2  4647
2 37175 043.4393 252.4257 2754103 313.6658 315.1467 00.02907699    01

# Worst residual: 11.56 km
# MJD 56885.000000 (2014 Aug 16  0:00)
2010-050B = RV223A9 = Chang'e 2 booster
1 37175U 10050B   14228.49922241  .00000000  00000-0  00000-0 2  4648
2 37175 043.3905 252.2593 2775080 313.1018 326.2468 00.02887086    03

# Worst residual: 7.73 km
# MJD 56886.000000 (2014 Aug 17  0:00)
2010-050B = RV223A9 = Chang'e 2 booster
1 37175U 10050B   14229.49922241  .00000000  00000-0  00000-0 2  4649
2 37175 043.3784 252.1303 2797846 312.7110 337.0657 00.02869144    03

# Worst residual: 5.05 km
# MJD 56887.000000 (2014 Aug 18  0:00)
2010-050B = RV223A9 = Chang'e 2 booster
1 37175U 10050B   14230.49922241  .00000000  00000-0  00000-0 2  4641
2 37175 043.3870 252.0518 2820053 312.4678 347.6358 00.02854050    04

# Worst residual: 4.56 km
# MJD 56888.000000 (2014 Aug 19  0:00)
2010-050B = RV223A9 = Chang'e 2 booster
1 37175U 10050B   14231.49922241  .00000000  00000-0  00000-0 2  4642
2 37175 043.3965 252.0237 2839987 312.3528 357.9975 00.02841754    02

# Worst residual: 4.06 km
# MJD 56889.000000 (2014 Aug 20  0:00)
2010-050B = RV223A9 = Chang'e 2 booster
1 37175U 10050B   14232.49922241  .00000000  00000-0  00000-0 2  4643
2 37175 043.3875 252.0344 2857564 312.3423 008.1972 00.02831289    00

# Worst residual: 7.03 km
# MJD 56890.000000 (2014 Aug 21  0:00)
2010-050B = RV223A9 = Chang'e 2 booster
1 37175U 10050B   14233.49922241  .00000000  00000-0  00000-0 2  4644
2 37175 043.3461 252.0602 2873498 312.4352 018.2588 00.02821389    09

# Worst residual: 10.17 km
# MJD 56891.000000 (2014 Aug 22  0:00)
2010-050B = RV223A9 = Chang'e 2 booster
1 37175U 10050B   14234.49922241  .00000000  00000-0  00000-0 2  4645
2 37175 043.2676 252.0717 2887895 312.6448 028.1883 00.02811283    07

# Worst residual: 12.91 km
# MJD 56892.000000 (2014 Aug 23  0:00)
2010-050B = RV223A9 = Chang'e 2 booster
1 37175U 10050B   14235.49922241  .00000000  00000-0  00000-0 2  4646
2 37175 043.1561 252.0419 2901600 312.9917 037.9711 00.02799884    03

# Worst residual: 15.09 km
# MJD 56893.000000 (2014 Aug 24  0:00)
2010-050B = RV223A9 = Chang'e 2 booster
1 37175U 10050B   14236.49922241  .00000000  00000-0  00000-0 2  4647
2 37175 043.0227 251.9516 2913492 313.4842 047.6044 00.02787385    02

# Worst residual: 16.89 km
# MJD 56894.000000 (2014 Aug 25  0:00)
2010-050B = RV223A9 = Chang'e 2 booster
1 37175U 10050B   14237.49922241  .00000000  00000-0  00000-0 2  4648
2 37175 042.8816 251.7910 2923231 314.1212 057.0828 00.02773722    05

# Worst residual: 18.27 km
# MJD 56895.000000 (2014 Aug 26  0:00)
2010-050B = RV223A9 = Chang'e 2 booster
1 37175U 10050B   14238.49922241  .00000000  00000-0  00000-0 2  4649
2 37175 042.7473 251.5606 2930299 314.8920 066.4060 00.02759060    09

# Worst residual: 18.49 km
# MJD 56896.000000 (2014 Aug 27  0:00)
2010-050B = RV223A9 = Chang'e 2 booster
1 37175U 10050B   14239.49922241  .00000000  00000-0  00000-0 2  4640
2 37175 042.6318 251.2680 2934293 315.7767 075.5794 00.02743666    02

# Worst residual: 19.65 km
# MJD 56897.000000 (2014 Aug 28  0:00)
2010-050B = RV223A9 = Chang'e 2 booster
1 37175U 10050B   14240.49922241  .00000000  00000-0  00000-0 2  4642
2 37175 042.5460 250.9324 2934696 316.7521 084.6080 00.02727713    00

# Worst residual: 19.58 km
# MJD 56898.000000 (2014 Aug 29  0:00)
2010-050B = RV223A9 = Chang'e 2 booster
1 37175U 10050B   14241.49922241  .00000000  00000-0  00000-0 2  4643
2 37175 042.4939 250.5703 2931372 317.7823 093.5131 00.02711646    05

# Worst residual: 18.92 km
# MJD 56899.000000 (2014 Aug 30  0:00)
2010-050B = RV223A9 = Chang'e 2 booster
1 37175U 10050B   14242.49922241  .00000000  00000-0  00000-0 2  4644
2 37175 042.4767 250.2047 2924148 318.8299 102.3185 00.02695798    01

# Worst residual: 17.59 km
# MJD 56900.000000 (2014 Aug 31  0:00)
2010-050B = RV223A9 = Chang'e 2 booster
1 37175U 10050B   14243.49922241  .00000000  00000-0  00000-0 2  4645
2 37175 042.4911 249.8569 2913110 319.8529 111.0586 00.02680566    08

# Worst residual: 15.35 km
# MJD 56901.000000 (2014 Sep  1  0:00)
2010-050B = RV223A9 = Chang'e 2 booster
1 37175U 10050B   14244.49922241  .00000000  00000-0  00000-0 2  4646
2 37175 042.5299 249.5474 2898945 320.8086 119.7696 00.02666367    08

# Worst residual: 12.86 km
# MJD 56902.000000 (2014 Sep  2  0:00)
2010-050B = RV223A9 = Chang'e 2 booster
1 37175U 10050B   14245.49922241  .00000000  00000-0  00000-0 2  4647
2 37175 042.5852 249.2836 2881057 321.6508 128.5264 00.02653503    03

# Worst residual: 9.53 km
# MJD 56903.000000 (2014 Sep  3  0:00)
2010-050B = RV223A9 = Chang'e 2 booster
1 37175U 10050B   14246.49922241  .00000000  00000-0  00000-0 2  4648
2 37175 042.6451 249.0802 2861448 322.3399 137.3681 00.02642366    04

# Worst residual: 5.68 km
# MJD 56904.000000 (2014 Sep  4  0:00)
2010-050B = RV223A9 = Chang'e 2 booster
1 37175U 10050B   14247.49922241  .00000000  00000-0  00000-0 2  4649
2 37175 042.7006 248.9361 2840920 322.8359 146.3706 00.02633187    01

# Worst residual: 5.00 km
# MJD 56905.000000 (2014 Sep  5  0:00)
2010-050B = RV223A9 = Chang'e 2 booster
1 37175U 10050B   14248.49922241  .00000000  00000-0  00000-0 2  4640
2 37175 042.7444 248.8453 2821066 323.1063 155.6047 00.02626117    00

# Worst residual: 5.35 km
# MJD 56906.000000 (2014 Sep  6  0:00)
2010-050B = RV223A9 = Chang'e 2 booster
1 37175U 10050B   14249.49922241  .00000000  00000-0  00000-0 2  4641
2 37175 042.7740 248.7953 2803905 323.1290 165.1362 00.02621166    02

# Worst residual: 6.10 km
# MJD 56907.000000 (2014 Sep  7  0:00)
2010-050B = RV223A9 = Chang'e 2 booster
1 37175U 10050B   14250.49922241  .00000000  00000-0  00000-0 2  4643
2 37175 042.7925 248.7695 2791707 322.9000 175.0114 00.02618145    00
